INTELSAT 701 (IS-701)   
1 22871U 93066A   16074.36439751 -.00000242  00000-0  00000+0 0  9998
2 22871   3.3215  69.5160 0003303 289.2514 275.2981  1.00272354 81785
INTELSAT 702 (IS-702)   
1 23124U 94034A   16074.61795549  .00000125  00000-0  00000+0 0  9993
2 23124   3.6682  67.7552 0001302 223.6296 136.6328  1.00269481 93818
INTELSAT 26 (IS-26)     
1 24732U 97007A   16074.96971606 -.00000002  00000-0  00000+0 0  9995
2 24732   6.7292  53.5318 0003654 319.2135 211.5414  1.00273839 69717
GALAXY 25 (G-25)        
1 24812U 97026A   16073.78126868 -.00000190  00000-0  00000+0 0  9994
2 24812   0.0216 244.7044 0003075 104.9139  10.3522  1.00272976 68781
INTELSAT 5 (IS-5)       
1 24916U 97046A   16075.28744361 -.00000168  00000-0  00000+0 0  9997
2 24916   2.6493  73.4204 0003733 289.2872  71.0750  1.00272496 68052
INTELSAT 805 (IS-805)   
1 25371U 98037A   16075.38876742 -.00000061  00000-0  00000+0 0  9996
2 25371   0.0406 298.5569 0003571  19.8645 163.9265  1.00272358 65004
INTELSAT 7 (IS-7)       
1 25473U 98052A   16075.21562911 -.00000186  00000-0  00000+0 0  9996
2 25473   2.3060  76.2742 0002625  98.9245 261.5898  0.98212779 64086
AFRISTAR                
1 25515U 98063A   16075.23678241  .00000097  00000-0  00000+0 0  9991
2 25515   2.4135  70.8094 0004538 286.6355 282.0275  1.00271954 63563
INTELSAT 8 (IS-8)       
1 25522U 98065A   16073.63843009 -.00000058  00000-0  00000+0 0  9997
2 25522   0.0648  87.7347 0003288 284.2373 198.5279  1.00272641 63544
GALAXY 27 (G-27)        
1 25922U 99052A   16074.08776049 -.00000032  00000-0  00000+0 0  9999
2 25922   2.3154  75.3843 0004982 283.0670 271.4536  1.00272302 60311
GALAXY 11 (G-11)        
1 26038U 99071A   16075.23726067  .00000125  00000-0  00000+0 0  9994
2 26038   0.0720  95.4480 0006889 241.7526 308.7524  1.00515355 59545
SIRIUS-1                
1 26390U 00035A   16073.34984644  .00000030  00000-0  00000-0 0  9990
2 26390  59.6755 233.6547 2579543 266.9851  63.5028  1.00272446 14141
INTELSAT 9 (IS-9)       
1 26451U 00043A   16075.29393734 -.00000299  00000-0  00000+0 0  9994
2 26451   2.6355  73.6491 0002348 271.6156 250.7591  1.00271676 57287
SIRIUS-2                
1 26483U 00051A   16074.40653782  .00000005  00000-0  00000+0 0  9996
2 26483  64.4950 113.7814 2822610 266.4792 206.9990  1.00272268 56863
INTELSAT 12 (IS-12)     
1 26590U 00068A   16074.15894737  .00000109  00000-0  00000+0 0  9997
2 26590   0.0289 243.6257 0003292 110.9444 279.8263  1.00271649 56223
INTELSAT 1R (IS-1R)     
1 26608U 00072A   16075.16827184 -.00000312  00000-0  00000+0 0  9993
2 26608   0.0421 282.4192 0000731   6.8420 254.5159  1.00273084 56096
SIRIUS-3                
1 26626U 00077A   16073.68269703 -.00000144  00000-0  00000+0 0  9993
2 26626  64.4605 353.5894 2660531 268.6169  61.2292  1.00281943 55995
XM-1 (ROLL)             
1 26761U 01018A   16075.36914499  .00000036  00000-0  00000+0 0  9994
2 26761   0.1109  90.8225 0000813 135.4994 324.8601  0.99108315 54467
INTELSAT 10 (IS-10)     
1 26766U 01019A   16075.09447838  .00000098  00000-0  00000+0 0  9996
2 26766   0.5655  87.1016 0002464 255.8030 271.7197  1.00270097 54360
INTELSAT 901 (IS-901)   
1 26824U 01024A   16074.80104242 -.00000169  00000-0  00000+0 0  9994
2 26824   0.0221  60.8580 0002250 294.4367  87.8903  1.00275364 54035
INTELSAT 902 (IS-902)   
1 26900U 01039A   16073.81303127  .00000006  00000-0  00000+0 0  9997
2 26900   0.0016 182.0942 0003368 189.6991 154.7349  1.00272552 53190
DIRECTV 4S              
1 26985U 01052A   16075.44410741 -.00000143  00000-0  00000+0 0  9990
2 26985   0.0152 204.6905 0002219 152.4614 234.9687  1.00271964 52436
INTELSAT 904 (IS-904)   
1 27380U 02007A   16074.90536502  .00000020  00000-0  00000+0 0  9998
2 27380   0.0375 306.0284 0003269  52.4752 200.3382  1.00272767 51528
INTELSAT 903 (IS-903)   
1 27403U 02016A   16075.16500675 -.00000268  00000-0  00000+0 0  9990
2 27403   0.0272 132.8437 0003448 239.6692 185.6070  1.00267390 51082
DIRECTV 5 (TEMPO 1)     
1 27426U 02023A   16074.82566840 -.00000085  00000-0  00000+0 0  9998
2 27426   0.0228 178.8094 0003411 169.6734  11.5093  1.00269462 50742
INTELSAT 905 (IS-905)   
1 27438U 02027A   16075.16525068 -.00000214  00000-0  00000+0 0  9994
2 27438   0.0447 269.2928 0002918  64.6287 234.2435  1.00272799 50401
GALAXY 3C (G-3C)        
1 27445U 02030A   16074.78394895 -.00000180  00000-0  00000+0 0  9997
2 27445   0.0136 160.5166 0001583 192.3870   7.0942  1.00272055 50397
INTELSAT 906 (IS-906)   
1 27513U 02041A   16074.14984220 -.00000013  00000-0  00000+0 0  9997
2 27513   0.0203 256.9563 0002962  89.3391 303.9600  1.00271155 49391
INTELSAT 907 (IS-907)   
1 27683U 03007A   16074.59699639 -.00000231  00000-0  00000+0 0  9996
2 27683   0.0211 178.1026 0002987 184.0931 357.8057  1.00270912 47827
GALAXY 12 (G-12)        
1 27715U 03013B   16074.62713388  .00000030  00000-0  00000+0 0  9997
2 27715   0.0177 223.3946 0001808 127.0566 278.9503  1.00272827 47433
GALAXY 23 (G-23)        
1 27854U 03034A   16075.16063168 -.00000017  00000-0  00000+0 0  9994
2 27854   0.0176 126.8771 0003484 236.9405 106.2073  1.00273480 46062
GALAXY 13 (HORIZONS-1)  
1 27954U 03044A   16074.62792595  .00000019  00000-0  00000+0 0  9990
2 27954   0.0078  80.5202 0001010 188.0300   3.1264  1.00272215 45592
DIRECTV 7S              
1 28238U 04016A   16075.36903065 -.00000028  00000-0  00000+0 0  9995
2 28238   0.0514 304.7324 0003121  53.6425 188.7781  1.00271197 43500
INTELSAT 10-02          
1 28358U 04022A   16075.04898023 -.00000041  00000-0  00000+0 0  9992
2 28358   0.0199 135.7418 0000762 174.6763 239.2920  1.00271216 43065
XM-3 (RHYTHM)           
1 28626U 05008A   16075.36993016 -.00000235  00000-0  00000+0 0  9993
2 28626   0.0419   2.9938 0000182 304.9568 273.5027  1.00271628 40509
SPACEWAY 1              
1 28644U 05015A   16075.31688499 -.00000132  00000-0  00000+0 0  9998
2 28644   0.0224 274.8295 0000294 326.4040 303.2486  1.00272467 39956
DIRECTV 8               
1 28659U 05019A   16074.80006786 -.00000144  00000-0  00000+0 0  9997
2 28659   0.0173 118.4875 0003254 229.7407  11.7396  1.00272145 39621
GALAXY 28 (G-28)        
1 28702U 05022A   16075.19358616 -.00000214  00000-0  00000+0 0  9993
2 28702   0.0243 155.9432 0000342 245.3511 112.5766  1.00269910 39265
GALAXY 14 (G-14)        
1 28790U 05030A   16075.21222617  .00000007  00000-0  00000+0 0  9992
2 28790   0.0413 313.5519 0002470  35.0945 135.9685  1.00271462 38744
GALAXY 15 (G-15)        
1 28884U 05041A   16074.63056572  .00000050  00000-0  00000+0 0  9996
2 28884   0.0260 274.2471 0001460  92.8290 259.5822  1.00272497 38059
SPACEWAY 2              
1 28903U 05046B   16075.16621374 -.00000156  00000-0  00000+0 0  9998
2 28903   0.0116  50.4315 0000264 274.9255 168.5698  1.00271363 37934
GALAXY 16 (G-16)        
1 29236U 06023A   16075.16621407 -.00000156  00000-0  00000+0 0  9991
2 29236   0.0242 210.3686 0002659 138.4951 145.1381  1.00271688 35702
DIRECTV 9S              
1 29494U 06043A   16075.44410973 -.00000144  00000-0  00000+0 0  9991
2 29494   0.0101 174.3022 0003592 180.8459 237.0767  1.00271667 34543
XM-4 (BLUES)            
1 29520U 06049A   16075.39491418 -.00000053  00000-0  00000+0 0  9993
2 29520   0.0378 330.9524 0000284 335.2983 254.0679  1.00273308 34432
GALAXY 17 (G-17)        
1 31307U 07016B   16073.44909492 -.00000201  00000-0  00000+0 0  9999
2 31307   0.0126 277.2148 0003875  76.7592 248.1771  1.00270237 32495
DIRECTV 10              
1 31862U 07032A   16074.80560294 -.00000131  00000-0  00000+0 0  9999
2 31862   0.0134 263.6487 0000330  17.5125  78.8351  1.00269981 31847
SPACEWAY 3              
1 32018U 07036A   16075.08443358 -.00000181  00000-0  00000+0 0  9994
2 32018   0.0407   2.0133 0000335 312.7790 153.7447  1.00271547 31569
INTELSAT 11 (IS-11)     
1 32253U 07044B   16075.09229819 -.00000298  00000-0  00000+0 0  9998
2 32253   0.0247 226.3044 0002968 123.8817 173.1405  1.00271195 30961
HORIZONS-2              
1 32388U 07063B   16073.83510093 -.00000210  00000-0  00000-0 0  9990
2 32388   0.0156 147.5318 0003060 202.2939 207.5350  1.00270137 30289
DIRECTV 11              
1 32729U 08013A   16074.10781060 -.00000154  00000-0  00000+0 0  9996
2 32729   0.0075  62.6370 0000240 183.3308 225.7926  1.00272099 29366
GALAXY 18 (G-18)        
1 32951U 08024A   16073.86400657 -.00000003  00000-0  00000+0 0  9990
2 32951   0.0241 160.7067 0002934 197.7457   1.5466  1.00271153 28512
INTELSAT 25 (IS-25)     
1 33153U 08034A   16073.17365672 -.00000251  00000-0  00000+0 0  9992
2 33153   0.0238 251.1777 0002112  90.9630 220.0659  1.00268062 28057
GALAXY 19 (G-19)        
1 33376U 08045A   16075.45075296 -.00000169  00000-0  00000+0 0  9992
2 33376   0.0044 186.7186 0003015 182.2550 229.7690  1.00271799 27270
SIRIUS FM-5             
1 35493U 09034A   16075.45075296 -.00000175  00000-0  00000+0 0  9990
2 35493   0.0476 281.4604 0000143 178.3471 139.9232  1.00271464 24412
INTELSAT 14 (IS-14)     
1 36097U 09064A   16072.22350711 -.00000298  00000-0  00000+0 0  9990
2 36097   0.0117 162.2616 0001722 178.7889 224.6989  1.00271946 23117
INTELSAT 15 (IS-15)     
1 36106U 09067A   16073.88248321 -.00000212  00000-0  00000+0 0  9996
2 36106   0.0502 285.0989 0002222  66.8112 222.8331  1.00271780 23022
DIRECTV 12              
1 36131U 09075A   16075.31688263 -.00000133  00000-0  00000+0 0  9998
2 36131   0.0227 274.8319 0000480  11.3759 258.3777  1.00271619 22829
INTELSAT 16 (IS-16)     
1 36397U 10006A   16075.20167240 -.00000314  00000-0  00000+0 0  9994
2 36397   0.0191 133.6332 0002200 232.7087 179.0389  1.00345299 22177
XM-5                    
1 37185U 10053A   16074.30812772 -.00000233  00000-0  00000+0 0  9999
2 37185   0.0384 285.2404 0001013 267.6972   5.0902  1.00272380 19874
INTELSAT 17 (IS-17)     
1 37238U 10065B   16074.60893133 -.00000030  00000-0  00000+0 0  9999
2 37238   0.0320 253.9436 0002930  93.2117 110.6752  1.00272457 19357
INTELSAT NEW DAWN       
1 37392U 11016A   16074.09993431  .00000128  00000-0  00000+0 0  9999
2 37392   0.0278 240.5118 0001201  95.0027 265.3866  1.00263865 17949
INTELSAT 18 (IS-18)     
1 37834U 11056A   16075.35820147  .00000023  00000-0  00000+0 0  9991
2 37834   0.0190 152.6983 0002260 212.4888 117.1129  1.00273198 16295
INTELSAT 22 (IS-22)     
1 38098U 12011A   16074.32088588 -.00000087  00000-0  00000+0 0  9998
2 38098   0.0090 104.7880 0002011 254.6534   0.5584  1.00270503 14487
INTELSAT 19 (IS-19)     
1 38356U 12030A   16074.06077482 -.00000084  00000-0  00000+0 0  9995
2 38356   0.0315 295.4811 0002973  66.5984 357.8981  1.00271616 13947
INTELSAT 20 (IS-20)     
1 38740U 12043A   16075.09671539 -.00000054  00000-0  00000+0 0  9990
2 38740   0.0046 166.7942 0000734  14.3811  95.2418  1.00271873 13261
INTELSAT 21 (IS-21)     
1 38749U 12045A   16074.49103377 -.00000313  00000-0  00000+0 0  9992
2 38749   0.0050 181.1127 0010476 232.8990 237.1429  1.00270523 13068
INTELSAT 23 (IS-23)     
1 38867U 12057A   16074.35763127 -.00000313  00000-0  00000+0 0  9996
2 38867   0.0295 262.8218 0001740  97.4346 247.8539  1.00270256 12547
SIRIUS FM-6             
1 39360U 13058A   16072.84785987 -.00000043  00000-0  00000-0 0  9998
2 39360   0.0194  83.1715 0000215 303.4984 333.3095  1.00272971  8600
INTELSAT 30 (IS-30)     
1 40271U 14062A   16074.56480359 -.00000179  00000-0  00000+0 0  9992
2 40271   0.0122 163.8328 0000397  74.5699  42.4544  1.00270822  5191
INTELSAT 34             
1 40874U 15039A   16075.09197803 -.00000315  00000-0  00000+0 0  9996
2 40874   0.0125 137.8417 0001080 114.3931 258.4704  1.00270365  2113
INTELSAT 29E            
1 41308U 16004A   16075.16827307 -.00000312  00000-0  00000+0 0  9996
2 41308   0.0745 315.8999 0000665 305.7048 282.4265  1.00271959   599
